[{"OBJECT_NAME":"STARLINK-11518 [DTC]","OBJECT_ID":"2024-254A","EPOCH":"2026-03-09T11:28:57.586656","MEAN_MOTION":15.70992254,"ECCENTRICITY":0.00021051,"INCLINATION":42.9984,"RA_OF_ASC_NODE":224.6467,"ARG_OF_PERICENTER":237.0903,"MEAN_ANOMALY":122.9763,"EPHEMERIS_TYPE":0,"CLASSIFICATION_TYPE":"U","NORAD_CAT_ID":62462,"ELEMENT_SET_NO":999,"REV_AT_EPOCH":6937,"BSTAR":0.0019649775,"MEAN_MOTION_DOT":0.00261447,"MEAN_MOTION_DDOT":0},{"OBJECT_NAME":"LOGSATS","OBJECT_ID":"2025-009CJ","EPOCH":"2026-03-09T17:25:39.487008","MEAN_MOTION":15.72310294,"ECCENTRICITY":0.00053927,"INCLINATION":97.3907,"RA_OF_ASC_NODE":158.8419,"ARG_OF_PERICENTER":263.6729,"MEAN_ANOMALY":96.392,"EPHEMERIS_TYPE":0,"CLASSIFICATION_TYPE":"U","NORAD_CAT_ID":62689,"ELEMENT_SET_NO":999,"REV_AT_EPOCH":6421,"BSTAR":0.0019540727,"MEAN_MOTION_DOT":0.00266017,"MEAN_MOTION_DDOT":0}]
