STARLINK-11518 [DTC]    
1 62462U 24254A   26068.47844429  .00261447  00000+0  19650-2 0  9997
2 62462  42.9984 224.6467 0002105 237.0903 122.9763 15.70992254 69370
LOGSATS                 
1 62689U 25009CJ  26068.72615147  .00266017  00000+0  19541-2 0  9995
2 62689  97.3907 158.8419 0005393 263.6729  96.3920 15.72310294 64215
